[
  {
    "OBJECT_NAME": "STARLINK-5774",
    "OBJECT_ID": "23042AV",
    "EPOCH": "2025-11-11T07:32:44.919456",
    "MEAN_MOTION": 15.02537169,
    "ECCENTRICITY": 0.0001327,
    "INCLINATION": 43.0025,
    "RA_OF_ASC_NODE": 326.3127,
    "ARG_OF_PERICENTER": 273.3239,
    "MEAN_ANOMALY": 86.7451,
    "EPHEMERIS_TYPE": 0,
    "CLASSIFICATION_TYPE": "U",
    "NORAD_CAT_ID": 56029,
    "ELEMENT_SET_NO": 999,
    "REV_AT_EPOCH": 14525,
    "BSTAR": 2.7470000000000003e-05,
    "MEAN_MOTION_DOT": 1.67e-06,
    "MEAN_MOTION_DDOT": 0.0,
    "TLE_LINE1": "1 56029U 23042AV  25315.31440879  .00000167  00000+0  27470-4 0  9992",
    "TLE_LINE2": "2 56029  43.0025 326.3127 0001327 273.3239  86.7451 15.02537169145251",
    "COMMENT": "Grouped by shell and plane from TLE"
  },
  {
    "OBJECT_NAME": "STARLINK-5781",
    "OBJECT_ID": "23042AW",
    "EPOCH": "2025-11-11T07:13:34.305600",
    "MEAN_MOTION": 15.02525833,
    "ECCENTRICITY": 0.0001248,
    "INCLINATION": 43.0048,
    "RA_OF_ASC_NODE": 326.2144,
    "ARG_OF_PERICENTER": 263.2503,
    "MEAN_ANOMALY": 96.8197,
    "EPHEMERIS_TYPE": 0,
    "CLASSIFICATION_TYPE": "U",
    "NORAD_CAT_ID": 56030,
    "ELEMENT_SET_NO": 999,
    "REV_AT_EPOCH": 14525,
    "BSTAR": 0.0,
    "MEAN_MOTION_DOT": -1.681e-05,
    "MEAN_MOTION_DDOT": 0.0,
    "TLE_LINE1": "1 56030U 23042AW  25315.30109150 -.00001681  00000+0 -10942-3 0  9996",
    "TLE_LINE2": "2 56030  43.0048 326.2144 0001248 263.2503  96.8197 15.02525833145254",
    "COMMENT": "Grouped by shell and plane from TLE"
  },
  {
    "OBJECT_NAME": "STARLINK-5785",
    "OBJECT_ID": "23042AX",
    "EPOCH": "2025-11-11T07:23:09.530880",
    "MEAN_MOTION": 15.02532752,
    "ECCENTRICITY": 0.000154,
    "INCLINATION": 43.007,
    "RA_OF_ASC_NODE": 326.266,
    "ARG_OF_PERICENTER": 271.1031,
    "MEAN_ANOMALY": 88.9635,
    "EPHEMERIS_TYPE": 0,
    "CLASSIFICATION_TYPE": "U",
    "NORAD_CAT_ID": 56031,
    "ELEMENT_SET_NO": 999,
    "REV_AT_EPOCH": 14525,
    "BSTAR": 0.0,
    "MEAN_MOTION_DOT": -2.34e-06,
    "MEAN_MOTION_DDOT": 0.0,
    "TLE_LINE1": "1 56031U 23042AX  25315.30774920 -.00000234  00000+0 -22693-5 0  9991",
    "TLE_LINE2": "2 56031  43.0070 326.2660 0001540 271.1031  88.9635 15.02532752145259",
    "COMMENT": "Grouped by shell and plane from TLE"
  },
  {
    "OBJECT_NAME": "STARLINK-5786",
    "OBJECT_ID": "23042AY",
    "EPOCH": "2025-11-11T02:13:36.063264",
    "MEAN_MOTION": 15.02495423,
    "ECCENTRICITY": 0.0001589,
    "INCLINATION": 43.0052,
    "RA_OF_ASC_NODE": 327.2301,
    "ARG_OF_PERICENTER": 259.0122,
    "MEAN_ANOMALY": 101.0542,
    "EPHEMERIS_TYPE": 0,
    "CLASSIFICATION_TYPE": "U",
    "NORAD_CAT_ID": 56032,
    "ELEMENT_SET_NO": 999,
    "REV_AT_EPOCH": 14522,
    "BSTAR": 0.0007735800000000001,
    "MEAN_MOTION_DOT": 0.0001025,
    "MEAN_MOTION_DDOT": 0.0,
    "TLE_LINE1": "1 56032U 23042AY  25315.09277851  .00010250  00000+0  77358-3 0  9992",
    "TLE_LINE2": "2 56032  43.0052 327.2301 0001589 259.0122 101.0542 15.02495423145226",
    "COMMENT": "Grouped by shell and plane from TLE"
  },
  {
    "OBJECT_NAME": "STARLINK-5782",
    "OBJECT_ID": "23042BA",
    "EPOCH": "2025-11-11T02:11:59.537184",
    "MEAN_MOTION": 15.02527869,
    "ECCENTRICITY": 0.0001199,
    "INCLINATION": 43.0048,
    "RA_OF_ASC_NODE": 327.2214,
    "ARG_OF_PERICENTER": 264.6382,
    "MEAN_ANOMALY": 95.4324,
    "EPHEMERIS_TYPE": 0,
    "CLASSIFICATION_TYPE": "U",
    "NORAD_CAT_ID": 56034,
    "ELEMENT_SET_NO": 999,
    "REV_AT_EPOCH": 14522,
    "BSTAR": 0.00014632000000000002,
    "MEAN_MOTION_DOT": 1.773e-05,
    "MEAN_MOTION_DDOT": 0.0,
    "TLE_LINE1": "1 56034U 23042BA  25315.09166131  .00001773  00000+0  14632-3 0  9998",
    "TLE_LINE2": "2 56034  43.0048 327.2214 0001199 264.6382  95.4324 15.02527869145227",
    "COMMENT": "Grouped by shell and plane from TLE"
  },
  {
    "OBJECT_NAME": "STARLINK-5792",
    "OBJECT_ID": "23042BB",
    "EPOCH": "2025-11-11T07:10:21.878112",
    "MEAN_MOTION": 15.02541009,
    "ECCENTRICITY": 0.0001112,
    "INCLINATION": 43.0029,
    "RA_OF_ASC_NODE": 326.1964,
    "ARG_OF_PERICENTER": 266.1831,
    "MEAN_ANOMALY": 93.8885,
    "EPHEMERIS_TYPE": 0,
    "CLASSIFICATION_TYPE": "U",
    "NORAD_CAT_ID": 56035,
    "ELEMENT_SET_NO": 999,
    "REV_AT_EPOCH": 14525,
    "BSTAR": 8.2461e-05,
    "MEAN_MOTION_DOT": 9.11e-06,
    "MEAN_MOTION_DDOT": 0.0,
    "TLE_LINE1": "1 56035U 23042BB  25315.29886433  .00000911  00000+0  82461-4 0  9994",
    "TLE_LINE2": "2 56035  43.0029 326.1964 0001112 266.1831  93.8885 15.02541009145257",
    "COMMENT": "Grouped by shell and plane from TLE"
  },
  {
    "OBJECT_NAME": "STARLINK-5790",
    "OBJECT_ID": "23042BC",
    "EPOCH": "2025-11-11T02:16:47.561952",
    "MEAN_MOTION": 15.02534569,
    "ECCENTRICITY": 0.0001199,
    "INCLINATION": 43.0043,
    "RA_OF_ASC_NODE": 327.2448,
    "ARG_OF_PERICENTER": 272.0477,
    "MEAN_ANOMALY": 88.0228,
    "EPHEMERIS_TYPE": 0,
    "CLASSIFICATION_TYPE": "U",
    "NORAD_CAT_ID": 56036,
    "ELEMENT_SET_NO": 999,
    "REV_AT_EPOCH": 14522,
    "BSTAR": 6.2273e-05,
    "MEAN_MOTION_DOT": 6.38e-06,
    "MEAN_MOTION_DDOT": 0.0,
    "TLE_LINE1": "1 56036U 23042BC  25315.09499493  .00000638  00000+0  62273-4 0  9994",
    "TLE_LINE2": "2 56036  43.0043 327.2448 0001199 272.0477  88.0228 15.02534569145227",
    "COMMENT": "Grouped by shell and plane from TLE"
  },
  {
    "OBJECT_NAME": "STARLINK-5793",
    "OBJECT_ID": "23042BE",
    "EPOCH": "2025-11-11T02:08:48.003072",
    "MEAN_MOTION": 15.02539071,
    "ECCENTRICITY": 0.0001063,
    "INCLINATION": 43.0052,
    "RA_OF_ASC_NODE": 327.206,
    "ARG_OF_PERICENTER": 271.8175,
    "MEAN_ANOMALY": 88.2545,
    "EPHEMERIS_TYPE": 0,
    "CLASSIFICATION_TYPE": "U",
    "NORAD_CAT_ID": 56038,
    "ELEMENT_SET_NO": 999,
    "REV_AT_EPOCH": 14522,
    "BSTAR": 3.2497e-05,
    "MEAN_MOTION_DOT": 2.35e-06,
    "MEAN_MOTION_DDOT": 0.0,
    "TLE_LINE1": "1 56038U 23042BE  25315.08944448  .00000235  00000+0  32497-4 0  9998",
    "TLE_LINE2": "2 56038  43.0052 327.2060 0001063 271.8175  88.2545 15.02539071145228",
    "COMMENT": "Grouped by shell and plane from TLE"
  },
  {
    "OBJECT_NAME": "STARLINK-30526",
    "OBJECT_ID": "23153R",
    "EPOCH": "2025-11-11T01:46:36.992064",
    "MEAN_MOTION": 15.02534413,
    "ECCENTRICITY": 0.0001411,
    "INCLINATION": 43.0056,
    "RA_OF_ASC_NODE": 328.0686,
    "ARG_OF_PERICENTER": 277.2091,
    "MEAN_ANOMALY": 82.859,
    "EPHEMERIS_TYPE": 0,
    "CLASSIFICATION_TYPE": "U",
    "NORAD_CAT_ID": 58006,
    "ELEMENT_SET_NO": 999,
    "REV_AT_EPOCH": 11732,
    "BSTAR": 9.1996e-05,
    "MEAN_MOTION_DOT": 1.039e-05,
    "MEAN_MOTION_DDOT": 0.0,
    "TLE_LINE1": "1 58006U 23153R   25315.07403926  .00001039  00000+0  91996-4 0  9990",
    "TLE_LINE2": "2 58006  43.0056 328.0686 0001411 277.2091  82.8590 15.02534413117321",
    "COMMENT": "Grouped by shell and plane from TLE"
  },
  {
    "OBJECT_NAME": "STARLINK-30931",
    "OBJECT_ID": "23180M",
    "EPOCH": "2025-11-11T07:34:27.447744",
    "MEAN_MOTION": 15.02485503,
    "ECCENTRICITY": 9.66e-05,
    "INCLINATION": 43.0009,
    "RA_OF_ASC_NODE": 326.8029,
    "ARG_OF_PERICENTER": 278.0567,
    "MEAN_ANOMALY": 82.0166,
    "EPHEMERIS_TYPE": 0,
    "CLASSIFICATION_TYPE": "U",
    "NORAD_CAT_ID": 58413,
    "ELEMENT_SET_NO": 999,
    "REV_AT_EPOCH": 10992,
    "BSTAR": 0.00077867,
    "MEAN_MOTION_DOT": 0.00010316,
    "MEAN_MOTION_DDOT": 0.0,
    "TLE_LINE1": "1 58413U 23180M   25315.31559546  .00010316  00000+0  77867-3 0  9997",
    "TLE_LINE2": "2 58413  43.0009 326.8029 0000966 278.0567  82.0166 15.02485503109922",
    "COMMENT": "Grouped by shell and plane from TLE"
  },
  {
    "OBJECT_NAME": "STARLINK-30869",
    "OBJECT_ID": "23183A",
    "EPOCH": "2025-11-11T02:20:06.072000",
    "MEAN_MOTION": 15.02527339,
    "ECCENTRICITY": 0.0001216,
    "INCLINATION": 43.005,
    "RA_OF_ASC_NODE": 327.827,
    "ARG_OF_PERICENTER": 272.1621,
    "MEAN_ANOMALY": 87.9082,
    "EPHEMERIS_TYPE": 0,
    "CLASSIFICATION_TYPE": "U",
    "NORAD_CAT_ID": 58437,
    "ELEMENT_SET_NO": 999,
    "REV_AT_EPOCH": 10887,
    "BSTAR": 0.00029444,
    "MEAN_MOTION_DOT": 3.775e-05,
    "MEAN_MOTION_DDOT": 0.0,
    "TLE_LINE1": "1 58437U 23183A   25315.09729250  .00003775  00000+0  29444-3 0  9991",
    "TLE_LINE2": "2 58437  43.0050 327.8270 0001216 272.1621  87.9082 15.02527339108876",
    "COMMENT": "Grouped by shell and plane from TLE"
  },
  {
    "OBJECT_NAME": "STARLINK-30969",
    "OBJECT_ID": "23183B",
    "EPOCH": "2025-11-11T07:12:04.679424",
    "MEAN_MOTION": 15.02548524,
    "ECCENTRICITY": 0.0001044,
    "INCLINATION": 43.0037,
    "RA_OF_ASC_NODE": 326.7699,
    "ARG_OF_PERICENTER": 279.571,
    "MEAN_ANOMALY": 80.5014,
    "EPHEMERIS_TYPE": 0,
    "CLASSIFICATION_TYPE": "U",
    "NORAD_CAT_ID": 58438,
    "ELEMENT_SET_NO": 999,
    "REV_AT_EPOCH": 10890,
    "BSTAR": 0.0,
    "MEAN_MOTION_DOT": -2.05e-06,
    "MEAN_MOTION_DDOT": 0.0,
    "TLE_LINE1": "1 58438U 23183B   25315.30005416 -.00000205  00000+0 -89250-7 0  9999",
    "TLE_LINE2": "2 58438  43.0037 326.7699 0001044 279.5710  80.5014 15.02548524108901",
    "COMMENT": "Grouped by shell and plane from TLE"
  },
  {
    "OBJECT_NAME": "STARLINK-30951",
    "OBJECT_ID": "23183C",
    "EPOCH": "2025-11-11T02:15:18.048096",
    "MEAN_MOTION": 15.02552862,
    "ECCENTRICITY": 0.0001234,
    "INCLINATION": 43.0041,
    "RA_OF_ASC_NODE": 327.8014,
    "ARG_OF_PERICENTER": 275.4828,
    "MEAN_ANOMALY": 84.5873,
    "EPHEMERIS_TYPE": 0,
    "CLASSIFICATION_TYPE": "U",
    "NORAD_CAT_ID": 58439,
    "ELEMENT_SET_NO": 999,
    "REV_AT_EPOCH": 10887,
    "BSTAR": 0.0,
    "MEAN_MOTION_DOT": -2.524e-05,
    "MEAN_MOTION_DDOT": 0.0,
    "TLE_LINE1": "1 58439U 23183C   25315.09395889 -.00002524  00000+0 -17173-3 0  9999",
    "TLE_LINE2": "2 58439  43.0041 327.8014 0001234 275.4828  84.5873 15.02552862108879",
    "COMMENT": "Grouped by shell and plane from TLE"
  }
]